{"type": "FeatureCollection", "features": [ {"type": "Feature", "properties": {"norad_id": 44622, "name": "GAOFEN-10R", "group": "resource", "lat": 12.662855183948077, "lon": -75.44051605892142, "alt_km": 618.2099623998138, "timestamp": "2025-12-04T21:36:15.532079+00:00", "meta": {"OBJECT_NAME": "GAOFEN-10R", "OBJECT_ID": "2019-066A", "EPOCH": "2025-12-04T15:04:06.413664", "MEAN_MOTION": 14.8274759, "ECCENTRICITY": 0.00082358, "INCLINATION": 98.0266, "RA_OF_ASC_NODE": 286.103, "ARG_OF_PERICENTER": 64.1751, "MEAN_ANOMALY": 296.031, "EPHEMERIS_TYPE": 0, "CLASSIFICATION_TYPE": "U", "NORAD_CAT_ID": 44622, "ELEMENT_SET_NO": 999, "REV_AT_EPOCH": 33354, "BSTAR": 0.0004804843, "MEAN_MOTION_DOT": 3.83e-05, "MEAN_MOTION_DDOT": 0}, "tle": {"line1": "1 44622U 19066A   25338.62785201  .00003830  00000+0  48048-3 0  9992", "line2": "2 44622  98.0266 286.1030 0008235  64.1751 296.0310 14.82747590333549"}}, "geometry": {"type": "Point", "coordinates": [-75.44051605892142, 12.662855183948077]}}, {"type": "Feature", "properties": {"norad_id": 44804, "name": "CARTOSAT-3", "group": "resource", "lat": -47.24066457670769, "lon": -149.56372130619926, "alt_km": 519.0993845355688, "timestamp": "2025-12-04T21:36:15.532089+00:00", "meta": {"OBJECT_NAME": "CARTOSAT-3", "OBJECT_ID": "2019-081A", "EPOCH": "2025-12-04T15:51:51.225120", "MEAN_MOTION": 15.19259898, "ECCENTRICITY": 0.00138947, "INCLINATION": 97.4601, "RA_OF_ASC_NODE": 38.3467, "ARG_OF_PERICENTER": 112.593, "MEAN_ANOMALY": 247.6776, "EPHEMERIS_TYPE": 0, "CLASSIFICATION_TYPE": "U", "NORAD_CAT_ID": 44804, "ELEMENT_SET_NO": 999, "REV_AT_EPOCH": 33393, "BSTAR": 0.00036319045, "MEAN_MOTION_DOT": 7.61e-05, "MEAN_MOTION_DDOT": 0}, "tle": {"line1": "1 44804U 19081A   25338.66100955  .00007610  00000+0  36319-3 0  9990", "line2": "2 44804  97.4601  38.3467 0013894 112.5930 247.6776 15.19259898333933"}}, "geometry": {"type": "Point", "coordinates": [-149.56372130619926, -47.24066457670769]}}, {"type": "Feature", "properties": {"norad_id": 44819, "name": "GAOFEN-12 01", "group": "resource", "lat": -19.99607426835946, "lon": -11.749162935386254, "alt_km": 631.9710601057004, "timestamp": "2025-12-04T21:36:15.532100+00:00", "meta": {"OBJECT_NAME": "GAOFEN-12 01", "OBJECT_ID": "2019-082A", "EPOCH": "2025-12-04T15:12:27.569952", "MEAN_MOTION": 14.80642839, "ECCENTRICITY": 0.00012232, "INCLINATION": 97.8128, "RA_OF_ASC_NODE": 345.1274, "ARG_OF_PERICENTER": 289.8207, "MEAN_ANOMALY": 70.2874, "EPHEMERIS_TYPE": 0, "CLASSIFICATION_TYPE": "U", "NORAD_CAT_ID": 44819, "ELEMENT_SET_NO": 999, "REV_AT_EPOCH": 32530, "BSTAR": 0.00013647823, "MEAN_MOTION_DOT": 9.97e-06, "MEAN_MOTION_DDOT": 0}, "tle": {"line1": "1 44819U 19082A   25338.63365243  .00000997  00000+0  13648-3 0  9998", "line2": "2 44819  97.8128 345.1274 0001223 289.8207  70.2874 14.80642839325309"}}, "geometry": {"type": "Point", "coordinates": [-11.749162935386254, -19.99607426835946]}}, {"type": "Feature", "properties": {"norad_id": 44873, "name": "CSG-1", "group": "resource", "lat": 47.69110159878041, "lon": 151.58941311241455, "alt_km": 617.5194955496163, "timestamp": "2025-12-04T21:36:15.532110+00:00", "meta": {"OBJECT_NAME": "CSG-1", "OBJECT_ID": "2019-092A", "EPOCH": "2025-12-04T14:54:22.113792", "MEAN_MOTION": 14.82146568, "ECCENTRICITY": 0.00014581, "INCLINATION": 97.8806, "RA_OF_ASC_NODE": 160.0675, "ARG_OF_PERICENTER": 86.7837, "MEAN_ANOMALY": 273.3543, "EPHEMERIS_TYPE": 0, "CLASSIFICATION_TYPE": "U", "NORAD_CAT_ID": 44873, "ELEMENT_SET_NO": 999, "REV_AT_EPOCH": 32265, "BSTAR": 0.00015703666, "MEAN_MOTION_DOT": 1.198e-05, "MEAN_MOTION_DDOT": 0}, "tle": {"line1": "1 44873U 19092A   25338.62108928  .00001198  00000+0  15704-3 0  9992", "line2": "2 44873  97.8806 160.0675 0001458  86.7837 273.3543 14.82146568322658"}}, "geometry": {"type": "Point", "coordinates": [151.58941311241455, 47.69110159878041]}}, {"type": "Feature", "properties": {"norad_id": 46277, "name": "NEMO-HD", "group": "resource", "lat": 11.47682012368828, "lon": 36.624050332713715, "alt_km": 446.41584324944506, "timestamp": "2025-12-04T21:36:15.532120+00:00", "meta": {"OBJECT_NAME": "NEMO-HD", "OBJECT_ID": "2020-061F", "EPOCH": "2025-12-04T15:19:00.207840", "MEAN_MOTION": 15.40076316, "ECCENTRICITY": 0.00023066, "INCLINATION": 97.2228, "RA_OF_ASC_NODE": 37.8409, "ARG_OF_PERICENTER": 65.9071, "MEAN_ANOMALY": 294.2417, "EPHEMERIS_TYPE": 0, "CLASSIFICATION_TYPE": "U", "NORAD_CAT_ID": 46277, "ELEMENT_SET_NO": 999, "REV_AT_EPOCH": 29199, "BSTAR": 0.00052005982, "MEAN_MOTION_DOT": 0.00020751, "MEAN_MOTION_DDOT": 0}, "tle": {"line1": "1 46277U 20061F   25338.63819685  .00020751  00000+0  52006-3 0  9992", "line2": "2 46277  97.2228  37.8409 0002306  65.9071 294.2417 15.40076316291990"}}, "geometry": {"type": "Point", "coordinates": [36.624050332713715, 11.47682012368828]}}, {"type": "Feature", "properties": {"norad_id": 46984, "name": "SENTINEL-6A", "group": "resource", "lat": -43.00776537936918, "lon": 154.08681344220048, "alt_km": 1339.0397903269259, "timestamp": "2025-12-04T21:36:15.532130+00:00", "meta": {"OBJECT_NAME": "SENTINEL-6A", "OBJECT_ID": "2020-086A", "EPOCH": "2025-12-04T14:21:37.335456", "MEAN_MOTION": 12.80930279, "ECCENTRICITY": 0.00077283, "INCLINATION": 66.039, "RA_OF_ASC_NODE": 179.2181, "ARG_OF_PERICENTER": 269.1498, "MEAN_ANOMALY": 90.8632, "EPHEMERIS_TYPE": 0, "CLASSIFICATION_TYPE": "U", "NORAD_CAT_ID": 46984, "ELEMENT_SET_NO": 999, "REV_AT_EPOCH": 23540, "BSTAR": 0.00019896128, "MEAN_MOTION_DOT": -1.5e-07, "MEAN_MOTION_DDOT": 0}, "tle": {"line1": "1 46984U 20086A   25338.59834879 -.00000015  00000+0  19896-3 0  9993", "line2": "2 46984  66.0390 179.2181 0007728 269.1498  90.8632 12.80930279235402"}}, "geometry": {"type": "Point", "coordinates": [154.08681344220048, -43.00776537936918]}}, {"type": "Feature", "properties": {"norad_id": 48079, "name": "GAOFEN-12 02", "group": "resource", "lat": -9.46174923821406, "lon": -25.714941848814426, "alt_km": 632.7597065147438, "timestamp": "2025-12-04T21:36:15.532140+00:00", "meta": {"OBJECT_NAME": "GAOFEN-12 02", "OBJECT_ID": "2021-026A", "EPOCH": "2025-12-04T15:09:35.415360", "MEAN_MOTION": 14.80660044, "ECCENTRICITY": 0.00033102, "INCLINATION": 97.9849, "RA_OF_ASC_NODE": 332.6774, "ARG_OF_PERICENTER": 117.1989, "MEAN_ANOMALY": 242.9561, "EPHEMERIS_TYPE": 0, "CLASSIFICATION_TYPE": "U", "NORAD_CAT_ID": 48079, "ELEMENT_SET_NO": 999, "REV_AT_EPOCH": 25297, "BSTAR": 0.0001372316, "MEAN_MOTION_DOT": 1.002e-05, "MEAN_MOTION_DDOT": 0}, "tle": {"line1": "1 48079U 21026A   25338.63165990  .00001002  00000+0  13723-3 0  9990", "line2": "2 48079  97.9849 332.6774 0003310 117.1989 242.9561 14.80660044252978"}}, "geometry": {"type": "Point", "coordinates": [-25.714941848814426, -9.46174923821406]}}, {"type": "Feature", "properties": {"norad_id": 48268, "name": "PLEIADES NEO 3", "group": "resource", "lat": 28.891533628330063, "lon": 47.061489925534914, "alt_km": 622.2959526541435, "timestamp": "2025-12-04T21:36:15.532150+00:00", "meta": {"OBJECT_NAME": "PLEIADES NEO 3", "OBJECT_ID": "2021-034A", "EPOCH": "2025-12-04T14:59:23.516736", "MEAN_MOTION": 14.81674474, "ECCENTRICITY": 0.00012779, "INCLINATION": 97.8949, "RA_OF_ASC_NODE": 51.1816, "ARG_OF_PERICENTER": 91.8822, "MEAN_ANOMALY": 268.2538, "EPHEMERIS_TYPE": 0, "CLASSIFICATION_TYPE": "U", "NORAD_CAT_ID": 48268, "ELEMENT_SET_NO": 999, "REV_AT_EPOCH": 24884, "BSTAR": -1.805246e-06, "MEAN_MOTION_DOT": -6.6e-07, "MEAN_MOTION_DDOT": 0}, "tle": {"line1": "1 48268U 21034A   25338.62457774 -.00000066  00000+0 -18052-5 0  9995", "line2": "2 48268  97.8949  51.1816 0001277  91.8822 268.2538 14.81674474248841"}}, "geometry": {"type": "Point", "coordinates": [47.061489925534914, 28.891533628330063]}}, {"type": "Feature", "properties": {"norad_id": 49070, "name": "PLEIADES NEO 4", "group": "resource", "lat": -29.186769926041727, "lon": -132.99593475529474, "alt_km": 630.3347807545788, "timestamp": "2025-12-04T21:36:15.532161+00:00", "meta": {"OBJECT_NAME": "PLEIADES NEO 4", "OBJECT_ID": "2021-073E", "EPOCH": "2025-12-04T15:47:59.922816", "MEAN_MOTION": 14.81673618, "ECCENTRICITY": 0.00013126, "INCLINATION": 97.8949, "RA_OF_ASC_NODE": 51.2112, "ARG_OF_PERICENTER": 96.9674, "MEAN_ANOMALY": 263.1688, "EPHEMERIS_TYPE": 0, "CLASSIFICATION_TYPE": "U", "NORAD_CAT_ID": 49070, "ELEMENT_SET_NO": 999, "REV_AT_EPOCH": 23256, "BSTAR": 3.370908e-06, "MEAN_MOTION_DOT": -2.6e-07, "MEAN_MOTION_DDOT": 0}, "tle": {"line1": "1 49070U 21073E   25338.65833244 -.00000026  00000+0  33709-5 0  9994", "line2": "2 49070  97.8949  51.2112 0001312  96.9674 263.1688 14.81673618232565"}}, "geometry": {"type": "Point", "coordinates": [-132.99593475529474, -29.186769926041727]}}, {"type": "Feature", "properties": {"norad_id": 49260, "name": "LANDSAT 9", "group": "resource", "lat": -17.86498362129181, "lon": -135.54288651817944, "alt_km": 707.686109033737, "timestamp": "2025-12-04T21:36:15.532171+00:00", "meta": {"OBJECT_NAME": "LANDSAT 9", "OBJECT_ID": "2021-088A", "EPOCH": "2025-12-04T15:45:16.682976", "MEAN_MOTION": 14.57117787, "ECCENTRICITY": 0.00010764, "INCLINATION": 98.2103, "RA_OF_ASC_NODE": 46.8842, "ARG_OF_PERICENTER": 92.867, "MEAN_ANOMALY": 267.2652, "EPHEMERIS_TYPE": 0, "CLASSIFICATION_TYPE": "U", "NORAD_CAT_ID": 49260, "ELEMENT_SET_NO": 999, "REV_AT_EPOCH": 22267, "BSTAR": 0.00021529375, "MEAN_MOTION_DOT": 9.25e-06, "MEAN_MOTION_DDOT": 0}, "tle": {"line1": "1 49260U 21088A   25338.65644309  .00000925  00000+0  21529-3 0  9995", "line2": "2 49260  98.2103  46.8842 0001076  92.8670 267.2652 14.57117787222671"}}, "geometry": {"type": "Point", "coordinates": [-135.54288651817944, -17.86498362129181]}}]}